{
  "type": "FeatureCollection",
  "features": [
    {
      "type": "Feature",
      "properties": {
        "norad_id": 33972,
        "name": "COSMOS 2251 DEB",
        "group": "cosmos-2251-debris",
        "lat": -53.022003490370714,
        "lon": 159.04035399590055,
        "alt_km": 713.7445172761354,
        "timestamp": "2025-12-17T17:50:19.643747+00:00",
        "meta_object_name": "COSMOS 2251 DEB",
        "meta_object_id": "1993-036FF",
        "meta_epoch": "2025-12-16T13:58:43.061376",
        "meta_mean_motion": 14.3625194,
        "meta_eccentricity": 0.01234613,
        "meta_inclination": 73.9939,
        "meta_ra_of_asc_node": 183.5873,
        "meta_arg_of_pericenter": 350.5001,
        "meta_mean_anomaly": 74.5972,
        "meta_ephemeris_type": 0,
        "meta_classification_type": "U",
        "meta_norad_cat_id": 33972,
        "meta_element_set_no": 999,
        "meta_rev_at_epoch": 87129,
        "meta_bstar": 0.00089755376,
        "meta_mean_motion_dot": 2.832e-05,
        "meta_mean_motion_ddot": 0,
        "tle_line1": "1 33972U 93036FF  25350.58244284  .00002832  00000+0  89755-3 0  9998",
        "tle_line2": "2 33972  73.9939 183.5873 0123461 350.5001  74.5972 14.36251940871298"
      },
      "geometry": {
        "type": "Point",
        "coordinates": [
          159.04035399590055,
          -53.022003490370714
        ]
      }
    },
    {
      "type": "Feature",
      "properties": {
        "norad_id": 33973,
        "name": "COSMOS 2251 DEB",
        "group": "cosmos-2251-debris",
        "lat": -38.074600097244826,
        "lon": -73.46642866825712,
        "alt_km": 725.5699417687674,
        "timestamp": "2025-12-17T17:50:19.643757+00:00",
        "meta_object_name": "COSMOS 2251 DEB",
        "meta_object_id": "1993-036FG",
        "meta_epoch": "2025-12-17T06:57:22.088736",
        "meta_mean_motion": 14.4539587,
        "meta_eccentricity": 0.00473609,
        "meta_inclination": 74.0086,
        "meta_ra_of_asc_node": 94.3975,
        "meta_arg_of_pericenter": 271.9892,
        "meta_mean_anomaly": 109.7387,
        "meta_ephemeris_type": 0,
        "meta_classification_type": "U",
        "meta_norad_cat_id": 33973,
        "meta_element_set_no": 999,
        "meta_rev_at_epoch": 88666,
        "meta_bstar": 0.00012711344,
        "meta_mean_motion_dot": 4.25e-06,
        "meta_mean_motion_ddot": 0,
        "tle_line1": "1 33973U 93036FG  25351.28983899  .00000425  00000+0  12711-3 0  9993",
        "tle_line2": "2 33973  74.0086  94.3975 0047360 271.9892 109.7387 14.45395870886662"
      },
      "geometry": {
        "type": "Point",
        "coordinates": [
          -73.46642866825712,
          -38.074600097244826
        ]
      }
    },
    {
      "type": "Feature",
      "properties": {
        "norad_id": 33975,
        "name": "COSMOS 2251 DEB",
        "group": "cosmos-2251-debris",
        "lat": 66.40511643321067,
        "lon": 117.37720152236253,
        "alt_km": 982.2773800304522,
        "timestamp": "2025-12-17T17:50:19.643768+00:00",
        "meta_object_name": "COSMOS 2251 DEB",
        "meta_object_id": "1993-036FJ",
        "meta_epoch": "2025-12-17T07:11:42.670752",
        "meta_mean_motion": 14.00534383,
        "meta_eccentricity": 0.01911904,
        "meta_inclination": 73.802,
        "meta_ra_of_asc_node": 76.4372,
        "meta_arg_of_pericenter": 208.6279,
        "meta_mean_anomaly": 150.4255,
        "meta_ephemeris_type": 0,
        "meta_classification_type": "U",
        "meta_norad_cat_id": 33975,
        "meta_element_set_no": 999,
        "meta_rev_at_epoch": 85893,
        "meta_bstar": 0.00048983611,
        "meta_mean_motion_dot": 8.26e-06,
        "meta_mean_motion_ddot": 0,
        "tle_line1": "1 33975U 93036FJ  25351.29979943  .00000826  00000+0  48984-3 0  9997",
        "tle_line2": "2 33975  73.8020  76.4372 0191190 208.6279 150.4255 14.00534383858939"
      },
      "geometry": {
        "type": "Point",
        "coordinates": [
          117.37720152236253,
          66.40511643321067
        ]
      }
    },
    {
      "type": "Feature",
      "properties": {
        "norad_id": 33980,
        "name": "COSMOS 2251 DEB",
        "group": "cosmos-2251-debris",
        "lat": -53.43100378989021,
        "lon": -107.41900372213993,
        "alt_km": 689.2059662621123,
        "timestamp": "2025-12-17T17:50:19.643779+00:00",
        "meta_object_name": "COSMOS 2251 DEB",
        "meta_object_id": "1993-036FP",
        "meta_epoch": "2025-12-17T07:11:45.597984",
        "meta_mean_motion": 14.58678812,
        "meta_eccentricity": 0.00284267,
        "meta_inclination": 74.0217,
        "meta_ra_of_asc_node": 50.7049,
        "meta_arg_of_pericenter": 195.1236,
        "meta_mean_anomaly": 233.5428,
        "meta_ephemeris_type": 0,
        "meta_classification_type": "U",
        "meta_norad_cat_id": 33980,
        "meta_element_set_no": 999,
        "meta_rev_at_epoch": 88861,
        "meta_bstar": 0.00046912202,
        "meta_mean_motion_dot": 2.17e-05,
        "meta_mean_motion_ddot": 0,
        "tle_line1": "1 33980U 93036FP  25351.29983331  .00002170  00000+0  46912-3 0  9992",
        "tle_line2": "2 33980  74.0217  50.7049 0028426 195.1236 233.5428 14.58678812888618"
      },
      "geometry": {
        "type": "Point",
        "coordinates": [
          -107.41900372213993,
          -53.43100378989021
        ]
      }
    },
    {
      "type": "Feature",
      "properties": {
        "norad_id": 33982,
        "name": "COSMOS 2251 DEB",
        "group": "cosmos-2251-debris",
        "lat": 56.47555613062951,
        "lon": 144.86684810186847,
        "alt_km": 682.902569523806,
        "timestamp": "2025-12-17T17:50:19.643789+00:00",
        "meta_object_name": "COSMOS 2251 DEB",
        "meta_object_id": "1993-036FR",
        "meta_epoch": "2025-12-17T02:47:52.443744",
        "meta_mean_motion": 14.60229855,
        "meta_eccentricity": 0.00751961,
        "meta_inclination": 74.0706,
        "meta_ra_of_asc_node": 351.5974,
        "meta_arg_of_pericenter": 34.8274,
        "meta_mean_anomaly": 31.0325,
        "meta_ephemeris_type": 0,
        "meta_classification_type": "U",
        "meta_norad_cat_id": 33982,
        "meta_element_set_no": 999,
        "meta_rev_at_epoch": 89223,
        "meta_bstar": 0.00036056778,
        "meta_mean_motion_dot": 1.779e-05,
        "meta_mean_motion_ddot": 0,
        "tle_line1": "1 33982U 93036FR  25351.11657921  .00001779  00000+0  36057-3 0  9991",
        "tle_line2": "2 33982  74.0706 351.5974 0075196  34.8274  31.0325 14.60229855892231"
      },
      "geometry": {
        "type": "Point",
        "coordinates": [
          144.86684810186847,
          56.47555613062951
        ]
      }
    },
    {
      "type": "Feature",
      "properties": {
        "norad_id": 33983,
        "name": "COSMOS 2251 DEB",
        "group": "cosmos-2251-debris",
        "lat": -55.74720581224598,
        "lon": -17.51685822741567,
        "alt_km": 714.9972950855599,
        "timestamp": "2025-12-17T17:50:19.643799+00:00",
        "meta_object_name": "COSMOS 2251 DEB",
        "meta_object_id": "1993-036FS",
        "meta_epoch": "2025-12-16T21:27:03.299616",
        "meta_mean_motion": 14.50688653,
        "meta_eccentricity": 0.00212534,
        "meta_inclination": 74.0493,
        "meta_ra_of_asc_node": 139.2432,
        "meta_arg_of_pericenter": 241.7993,
        "meta_mean_anomaly": 242.7601,
        "meta_ephemeris_type": 0,
        "meta_classification_type": "U",
        "meta_norad_cat_id": 33983,
        "meta_element_set_no": 999,
        "meta_rev_at_epoch": 88689,
        "meta_bstar": 0.00044096727,
        "meta_mean_motion_dot": 1.71e-05,
        "meta_mean_motion_ddot": 0,
        "tle_line1": "1 33983U 93036FS  25350.89378819  .00001710  00000+0  44097-3 0  9990",
        "tle_line2": "2 33983  74.0493 139.2432 0021253 241.7993 242.7601 14.50688653886894"
      },
      "geometry": {
        "type": "Point",
        "coordinates": [
          -17.51685822741567,
          -55.74720581224598
        ]
      }
    },
    {
      "type": "Feature",
      "properties": {
        "norad_id": 33984,
        "name": "COSMOS 2251 DEB",
        "group": "cosmos-2251-debris",
        "lat": -73.87513484651275,
        "lon": -119.85088050973135,
        "alt_km": 680.5657793019172,
        "timestamp": "2025-12-17T17:50:19.643809+00:00",
        "meta_object_name": "COSMOS 2251 DEB",
        "meta_object_id": "1993-036FT",
        "meta_epoch": "2025-12-17T07:18:37.973952",
        "meta_mean_motion": 14.66403233,
        "meta_eccentricity": 0.00228211,
        "meta_inclination": 74.0089,
        "meta_ra_of_asc_node": 338.2867,
        "meta_arg_of_pericenter": 175.0821,
        "meta_mean_anomaly": 297.7888,
        "meta_ephemeris_type": 0,
        "meta_classification_type": "U",
        "meta_norad_cat_id": 33984,
        "meta_element_set_no": 999,
        "meta_rev_at_epoch": 89133,
        "meta_bstar": 0.00063912896,
        "meta_mean_motion_dot": 3.518e-05,
        "meta_mean_motion_ddot": 0,
        "tle_line1": "1 33984U 93036FT  25351.30460618  .00003518  00000+0  63913-3 0  9993",
        "tle_line2": "2 33984  74.0089 338.2867 0022821 175.0821 297.7888 14.66403233891338"
      },
      "geometry": {
        "type": "Point",
        "coordinates": [
          -119.85088050973135,
          -73.87513484651275
        ]
      }
    }
  ]
}